{
    "CCSDS_OMM_VERS": "3.0",
    "COMMENT": "GENERATED VIA SPACE-TRACK.ORG API",
    "CREATION_DATE": "2025-05-22T17:14:14",
    "ORIGINATOR": "18 SPCS",
    "OBJECT_NAME": "QZS-4",
    "OBJECT_ID": "2017-062A",
    "CENTER_NAME": "EARTH",
    "REF_FRAME": "TEME",
    "TIME_SYSTEM": "UTC",
    "MEAN_ELEMENT_THEORY": "SGP4",
    "EPOCH": "2025-05-22T11:30:02.683872",
    "MEAN_MOTION": "1.00258602",
    "ECCENTRICITY": "0.07459310",
    "INCLINATION": "40.3412",
    "RA_OF_ASC_NODE": "348.4715",
    "ARG_OF_PERICENTER": "271.1119",
    "MEAN_ANOMALY": "291.6872",
    "EPHEMERIS_TYPE": "0",
    "CLASSIFICATION_TYPE": "U",
    "NORAD_CAT_ID": "42965",
    "ELEMENT_SET_NO": "999",
    "REV_AT_EPOCH": "2789",
    "BSTAR": "0.00000000000000",
    "MEAN_MOTION_DOT": "-0.00000313",
    "MEAN_MOTION_DDOT": "0.0000000000000",
    "SEMIMAJOR_AXIS": "42168.428",
    "PERIOD": "1436.286",
    "APOAPSIS": "38935.767",
    "PERIAPSIS": "32644.819",
    "OBJECT_TYPE": "PAYLOAD",
    "RCS_SIZE": "LARGE",
    "COUNTRY_CODE": "JPN",
    "LAUNCH_DATE": "2017-10-09",
    "SITE": "TNSTA",
    "DECAY_DATE": null,
    "FILE": "4736220",
    "GP_ID": "288144380",
    "TLE_LINE0": "0 QZS-4",
    "TLE_LINE1": "1 42965U 17062A   25142.47919773 -.00000313  00000-0  00000-0 0  9991",
    "TLE_LINE2": "2 42965  40.3412 348.4715 0745931 271.1119 291.6872  1.00258602 27890"
}